ASTROCAST-0402          
1 55109U 23001DE  26068.80661100  .00010930  00000+0  41835-3 0  9996
2 55109  97.5556 160.6821 0004209 216.6984 143.3966 15.26734153129364
STARLINK-31751          
1 59574U 24076L   26068.26238815 -.00002459  00000+0 -79868-4 0  9999
2 59574  43.0006  11.7415 0000976 263.6594  96.4146 15.27577347106433
