[{"OBJECT_NAME":"ASTROCAST-0402","OBJECT_ID":"2023-001DE","EPOCH":"2026-03-09T19:21:31.190400","MEAN_MOTION":15.26734153,"ECCENTRICITY":0.00042092,"INCLINATION":97.5556,"RA_OF_ASC_NODE":160.6821,"ARG_OF_PERICENTER":216.6984,"MEAN_ANOMALY":143.3966,"EPHEMERIS_TYPE":0,"CLASSIFICATION_TYPE":"U","NORAD_CAT_ID":55109,"ELEMENT_SET_NO":999,"REV_AT_EPOCH":12936,"BSTAR":0.00041835119,"MEAN_MOTION_DOT":0.0001093,"MEAN_MOTION_DDOT":0},{"OBJECT_NAME":"STARLINK-31751","OBJECT_ID":"2024-076L","EPOCH":"2026-03-09T06:17:50.336160","MEAN_MOTION":15.27577347,"ECCENTRICITY":9.766e-5,"INCLINATION":43.0006,"RA_OF_ASC_NODE":11.7415,"ARG_OF_PERICENTER":263.6594,"MEAN_ANOMALY":96.4146,"EPHEMERIS_TYPE":0,"CLASSIFICATION_TYPE":"U","NORAD_CAT_ID":59574,"ELEMENT_SET_NO":999,"REV_AT_EPOCH":10643,"BSTAR":-7.98677e-5,"MEAN_MOTION_DOT":-2.459e-5,"MEAN_MOTION_DDOT":0}]
